{
  "type": "FeatureCollection",
  "features": [
    {
      "type": "Feature",
      "properties": {
        "norad_id": 66454,
        "name": "VIASAT-3 F2",
        "group": "last-30-days",
        "lat": 3.3486123001659314,
        "lon": 74.09177490937181,
        "alt_km": 14685.920254089455,
        "timestamp": "2025-12-13T08:49:14.455094+00:00",
        "meta_object_name": "VIASAT-3 F2",
        "meta_object_id": "2025-261A",
        "meta_epoch": "2025-12-12T22:24:17.478432",
        "meta_mean_motion": 2.09869596,
        "meta_eccentricity": 0.2249784,
        "meta_inclination": 5.3891,
        "meta_ra_of_asc_node": 292.3457,
        "meta_arg_of_pericenter": 185.8732,
        "meta_mean_anomaly": 3.755,
        "meta_ephemeris_type": 0,
        "meta_classification_type": "U",
        "meta_norad_cat_id": 66454,
        "meta_element_set_no": 999,
        "meta_rev_at_epoch": 64,
        "meta_bstar": 0,
        "meta_mean_motion_dot": -8.1e-07,
        "meta_mean_motion_ddot": 0,
        "tle_line1": "1 66454U 25261A   25346.93353563 -.00000081  00000+0  00000+0 0  9996",
        "tle_line2": "2 66454   5.3891 292.3457 2249784 185.8732   3.7550  2.09869596   649"
      },
      "geometry": {
        "type": "Point",
        "coordinates": [
          74.09177490937181,
          3.3486123001659314
        ]
      }
    },
    {
      "type": "Feature",
      "properties": {
        "norad_id": 66455,
        "name": "ATLAS 5 CENTAUR R/B",
        "group": "last-30-days",
        "lat": 6.036389378037086,
        "lon": 32.82712457130946,
        "alt_km": 16231.687254652908,
        "timestamp": "2025-12-13T08:49:14.455142+00:00",
        "meta_object_name": "ATLAS 5 CENTAUR R/B",
        "meta_object_id": "2025-261B",
        "meta_epoch": "2025-12-12T08:49:15.432672",
        "meta_mean_motion": 2.28259929,
        "meta_eccentricity": 0.2329457,
        "meta_inclination": 6.1462,
        "meta_ra_of_asc_node": 291.6535,
        "meta_arg_of_pericenter": 186.4094,
        "meta_mean_anomaly": 198.8735,
        "meta_ephemeris_type": 0,
        "meta_classification_type": "U",
        "meta_norad_cat_id": 66455,
        "meta_element_set_no": 999,
        "meta_rev_at_epoch": 64,
        "meta_bstar": 0,
        "meta_mean_motion_dot": -7.6e-07,
        "meta_mean_motion_ddot": 0,
        "tle_line1": "1 66455U 25261B   25346.36753973 -.00000076  00000+0  00000+0 0  9997",
        "tle_line2": "2 66455   6.1462 291.6535 2329457 186.4094 198.8735  2.28259929   641"
      },
      "geometry": {
        "type": "Point",
        "coordinates": [
          32.82712457130946,
          6.036389378037086
        ]
      }
    },
    {
      "type": "Feature",
      "properties": {
        "norad_id": 66456,
        "name": "STARLINK-35643",
        "group": "last-30-days",
        "lat": 24.455067841180746,
        "lon": 97.20383043832697,
        "alt_km": 440.1930735261167,
        "timestamp": "2025-12-13T08:49:14.455162+00:00",
        "meta_object_name": "STARLINK-35643",
        "meta_object_id": "2025-262A",
        "meta_epoch": "2025-12-12T12:26:00.401280",
        "meta_mean_motion": 15.40697373,
        "meta_eccentricity": 0.00026501,
        "meta_inclination": 43.0001,
        "meta_ra_of_asc_node": 72.889,
        "meta_arg_of_pericenter": 289.9432,
        "meta_mean_anomaly": 70.1139,
        "meta_ephemeris_type": 0,
        "meta_classification_type": "U",
        "meta_norad_cat_id": 66456,
        "meta_element_set_no": 999,
        "meta_rev_at_epoch": 552,
        "meta_bstar": 0.0017000421,
        "meta_mean_motion_dot": 0.00071376,
        "meta_mean_motion_ddot": 0,
        "tle_line1": "1 66456U 25262A   25346.51806020  .00071376  00000+0  17000-2 0  9999",
        "tle_line2": "2 66456  43.0001  72.8890 0002650 289.9432  70.1139 15.40697373  5529"
      },
      "geometry": {
        "type": "Point",
        "coordinates": [
          97.20383043832697,
          24.455067841180746
        ]
      }
    },
    {
      "type": "Feature",
      "properties": {
        "norad_id": 66457,
        "name": "STARLINK-35466",
        "group": "last-30-days",
        "lat": 37.09551395407042,
        "lon": 122.17661041367298,
        "alt_km": 438.80751022903314,
        "timestamp": "2025-12-13T08:49:14.455175+00:00",
        "meta_object_name": "STARLINK-35466",
        "meta_object_id": "2025-262B",
        "meta_epoch": "2025-12-12T23:13:01.317504",
        "meta_mean_motion": 15.40742511,
        "meta_eccentricity": 0.00013775,
        "meta_inclination": 42.999,
        "meta_ra_of_asc_node": 70.2408,
        "meta_arg_of_pericenter": 237.9042,
        "meta_mean_anomaly": 122.1681,
        "meta_ephemeris_type": 0,
        "meta_classification_type": "U",
        "meta_norad_cat_id": 66457,
        "meta_element_set_no": 999,
        "meta_rev_at_epoch": 559,
        "meta_bstar": 0.0013899049,
        "meta_mean_motion_dot": 0.00058283,
        "meta_mean_motion_ddot": 0,
        "tle_line1": "1 66457U 25262B   25346.96737636  .00058283  00000+0  13899-2 0  9999",
        "tle_line2": "2 66457  42.9990  70.2408 0001377 237.9042 122.1681 15.40742511  5599"
      },
      "geometry": {
        "type": "Point",
        "coordinates": [
          122.17661041367298,
          37.09551395407042
        ]
      }
    },
    {
      "type": "Feature",
      "properties": {
        "norad_id": 66458,
        "name": "STARLINK-35684",
        "group": "last-30-days",
        "lat": 31.425345640895657,
        "lon": 108.93369591436375,
        "alt_km": 439.71321741979864,
        "timestamp": "2025-12-13T08:49:14.455187+00:00",
        "meta_object_name": "STARLINK-35684",
        "meta_object_id": "2025-262C",
        "meta_epoch": "2025-12-12T15:29:28.852512",
        "meta_mean_motion": 15.40734185,
        "meta_eccentricity": 0.00016135,
        "meta_inclination": 43.0009,
        "meta_ra_of_asc_node": 72.1254,
        "meta_arg_of_pericenter": 241.6784,
        "meta_mean_anomaly": 118.3909,
        "meta_ephemeris_type": 0,
        "meta_classification_type": "U",
        "meta_norad_cat_id": 66458,
        "meta_element_set_no": 999,
        "meta_rev_at_epoch": 554,
        "meta_bstar": 0.0015334099,
        "meta_mean_motion_dot": 0.00064366,
        "meta_mean_motion_ddot": 0,
        "tle_line1": "1 66458U 25262C   25346.64547283  .00064366  00000+0  15334-2 0  9997",
        "tle_line2": "2 66458  43.0009  72.1254 0001613 241.6784 118.3909 15.40734185  5544"
      },
      "geometry": {
        "type": "Point",
        "coordinates": [
          108.93369591436375,
          31.425345640895657
        ]
      }
    },
    {
      "type": "Feature",
      "properties": {
        "norad_id": 66459,
        "name": "STARLINK-35449",
        "group": "last-30-days",
        "lat": 41.0910562558045,
        "lon": 137.26762087602447,
        "alt_km": 438.450297396349,
        "timestamp": "2025-12-13T08:49:14.455202+00:00",
        "meta_object_name": "STARLINK-35449",
        "meta_object_id": "2025-262D",
        "meta_epoch": "2025-12-12T20:00:01.999872",
        "meta_mean_motion": 15.40718077,
        "meta_eccentricity": 0.00016605,
        "meta_inclination": 43.0003,
        "meta_ra_of_asc_node": 70.9813,
        "meta_arg_of_pericenter": 292.278,
        "meta_mean_anomaly": 56.0229,
        "meta_ephemeris_type": 0,
        "meta_classification_type": "U",
        "meta_norad_cat_id": 66459,
        "meta_element_set_no": 999,
        "meta_rev_at_epoch": 565,
        "meta_bstar": -0.0010682545,
        "meta_mean_motion_dot": -0.00044694,
        "meta_mean_motion_ddot": 0,
        "tle_line1": "1 66459U 25262D   25346.83335648 -.00044694  00000+0 -10683-2 0  9995",
        "tle_line2": "2 66459  43.0003  70.9813 0001660 292.2780  56.0229 15.40718077  5653"
      },
      "geometry": {
        "type": "Point",
        "coordinates": [
          137.26762087602447,
          41.0910562558045
        ]
      }
    },
    {
      "type": "Feature",
      "properties": {
        "norad_id": 66460,
        "name": "STARLINK-35424",
        "group": "last-30-days",
        "lat": 42.90944328952776,
        "lon": 153.84699180693804,
        "alt_km": 438.30468302115514,
        "timestamp": "2025-12-13T08:49:14.455215+00:00",
        "meta_object_name": "STARLINK-35424",
        "meta_object_id": "2025-262E",
        "meta_epoch": "2025-12-12T20:00:01.999872",
        "meta_mean_motion": 15.40704738,
        "meta_eccentricity": 0.00014489,
        "meta_inclination": 43.0003,
        "meta_ra_of_asc_node": 70.9515,
        "meta_arg_of_pericenter": 262.3445,
        "meta_mean_anomaly": 98.4191,
        "meta_ephemeris_type": 0,
        "meta_classification_type": "U",
        "meta_norad_cat_id": 66460,
        "meta_element_set_no": 999,
        "meta_rev_at_epoch": 565,
        "meta_bstar": -0.0007399132,
        "meta_mean_motion_dot": -0.0003109,
        "meta_mean_motion_ddot": 0,
        "tle_line1": "1 66460U 25262E   25346.83335648 -.00031090  00000+0 -73991-3 0  9995",
        "tle_line2": "2 66460  43.0003  70.9515 0001448 262.3445  98.4191 15.40704738  5651"
      },
      "geometry": {
        "type": "Point",
        "coordinates": [
          153.84699180693804,
          42.90944328952776
        ]
      }
    }
  ]
}